[
  {
    "OBJECT_NAME": "STARLINK-2190",
    "OBJECT_ID": "21041M",
    "EPOCH": "2025-11-11T06:20:26.775456",
    "MEAN_MOTION": 15.06400332,
    "ECCENTRICITY": 0.0001405,
    "INCLINATION": 53.0551,
    "RA_OF_ASC_NODE": 303.2525,
    "ARG_OF_PERICENTER": 96.8003,
    "MEAN_ANOMALY": 263.3146,
    "EPHEMERIS_TYPE": 0,
    "CLASSIFICATION_TYPE": "U",
    "NORAD_CAT_ID": 48564,
    "ELEMENT_SET_NO": 999,
    "REV_AT_EPOCH": 24735,
    "BSTAR": 9.5086e-05,
    "MEAN_MOTION_DOT": 1.135e-05,
    "MEAN_MOTION_DDOT": 0.0,
    "TLE_LINE1": "1 48564U 21041M   25315.26419879  .00001135  00000+0  95086-4 0  9998",
    "TLE_LINE2": "2 48564  53.0551 303.2525 0001405  96.8003 263.3146 15.06400332247354",
    "COMMENT": "Grouped by shell and plane from TLE"
  },
  {
    "OBJECT_NAME": "STARLINK-2217",
    "OBJECT_ID": "21041R",
    "EPOCH": "2025-11-11T05:48:35.616096",
    "MEAN_MOTION": 15.06404533,
    "ECCENTRICITY": 0.0001226,
    "INCLINATION": 53.0552,
    "RA_OF_ASC_NODE": 303.3508,
    "ARG_OF_PERICENTER": 79.5334,
    "MEAN_ANOMALY": 280.5793,
    "EPHEMERIS_TYPE": 0,
    "CLASSIFICATION_TYPE": "U",
    "NORAD_CAT_ID": 48568,
    "ELEMENT_SET_NO": 999,
    "REV_AT_EPOCH": 24734,
    "BSTAR": 0.0003926,
    "MEAN_MOTION_DOT": 5.572e-05,
    "MEAN_MOTION_DDOT": 0.0,
    "TLE_LINE1": "1 48568U 21041R   25315.24207889  .00005572  00000+0  39260-3 0  9996",
    "TLE_LINE2": "2 48568  53.0552 303.3508 0001226  79.5334 280.5793 15.06404533247342",
    "COMMENT": "Grouped by shell and plane from TLE"
  },
  {
    "OBJECT_NAME": "STARLINK-2219",
    "OBJECT_ID": "21041S",
    "EPOCH": "2025-11-11T06:25:45.802272",
    "MEAN_MOTION": 15.06392283,
    "ECCENTRICITY": 0.0001578,
    "INCLINATION": 53.0559,
    "RA_OF_ASC_NODE": 303.2367,
    "ARG_OF_PERICENTER": 91.2043,
    "MEAN_ANOMALY": 268.9127,
    "EPHEMERIS_TYPE": 0,
    "CLASSIFICATION_TYPE": "U",
    "NORAD_CAT_ID": 48569,
    "ELEMENT_SET_NO": 999,
    "REV_AT_EPOCH": 24735,
    "BSTAR": 3.8367e-05,
    "MEAN_MOTION_DOT": 2.9e-06,
    "MEAN_MOTION_DDOT": 0.0,
    "TLE_LINE1": "1 48569U 21041S   25315.26789123  .00000290  00000+0  38367-4 0  9995",
    "TLE_LINE2": "2 48569  53.0559 303.2367 0001578  91.2043 268.9127 15.06392283247350",
    "COMMENT": "Grouped by shell and plane from TLE"
  },
  {
    "OBJECT_NAME": "STARLINK-2224",
    "OBJECT_ID": "21041W",
    "EPOCH": "2025-11-11T05:43:18.020928",
    "MEAN_MOTION": 15.06399034,
    "ECCENTRICITY": 0.0001328,
    "INCLINATION": 53.0552,
    "RA_OF_ASC_NODE": 303.3641,
    "ARG_OF_PERICENTER": 103.8296,
    "MEAN_ANOMALY": 256.2841,
    "EPHEMERIS_TYPE": 0,
    "CLASSIFICATION_TYPE": "U",
    "NORAD_CAT_ID": 48573,
    "ELEMENT_SET_NO": 999,
    "REV_AT_EPOCH": 24734,
    "BSTAR": 9.0967e-05,
    "MEAN_MOTION_DOT": 1.074e-05,
    "MEAN_MOTION_DDOT": 0.0,
    "TLE_LINE1": "1 48573U 21041W   25315.23840302  .00001074  00000+0  90967-4 0  9999",
    "TLE_LINE2": "2 48573  53.0552 303.3641 0001328 103.8296 256.2841 15.06399034247340",
    "COMMENT": "Grouped by shell and plane from TLE"
  },
  {
    "OBJECT_NAME": "STARLINK-2231",
    "OBJECT_ID": "21041AA",
    "EPOCH": "2025-11-11T06:09:53.021088",
    "MEAN_MOTION": 15.06393385,
    "ECCENTRICITY": 0.0001539,
    "INCLINATION": 53.0561,
    "RA_OF_ASC_NODE": 303.5543,
    "ARG_OF_PERICENTER": 90.5036,
    "MEAN_ANOMALY": 269.613,
    "EPHEMERIS_TYPE": 0,
    "CLASSIFICATION_TYPE": "U",
    "NORAD_CAT_ID": 48577,
    "ELEMENT_SET_NO": 999,
    "REV_AT_EPOCH": 24734,
    "BSTAR": 0.0,
    "MEAN_MOTION_DOT": -3.32e-06,
    "MEAN_MOTION_DDOT": 0.0,
    "TLE_LINE1": "1 48577U 21041AA  25315.25686367 -.00000332  00000+0 -33989-5 0  9994",
    "TLE_LINE2": "2 48577  53.0561 303.5543 0001539  90.5036 269.6130 15.06393385247347",
    "COMMENT": "Grouped by shell and plane from TLE"
  },
  {
    "OBJECT_NAME": "STARLINK-2232",
    "OBJECT_ID": "21041AB",
    "EPOCH": "2025-11-11T06:15:13.893408",
    "MEAN_MOTION": 15.06397109,
    "ECCENTRICITY": 0.0001339,
    "INCLINATION": 53.055,
    "RA_OF_ASC_NODE": 303.7736,
    "ARG_OF_PERICENTER": 87.721,
    "MEAN_ANOMALY": 272.3932,
    "EPHEMERIS_TYPE": 0,
    "CLASSIFICATION_TYPE": "U",
    "NORAD_CAT_ID": 48578,
    "ELEMENT_SET_NO": 999,
    "REV_AT_EPOCH": 24734,
    "BSTAR": 8.413000000000001e-05,
    "MEAN_MOTION_DOT": 9.72e-06,
    "MEAN_MOTION_DDOT": 0.0,
    "TLE_LINE1": "1 48578U 21041AB  25315.26057747  .00000972  00000+0  84130-4 0  9991",
    "TLE_LINE2": "2 48578  53.0550 303.7736 0001339  87.7210 272.3932 15.06397109247341",
    "COMMENT": "Grouped by shell and plane from TLE"
  },
  {
    "OBJECT_NAME": "STARLINK-2245",
    "OBJECT_ID": "21041AN",
    "EPOCH": "2025-11-11T06:57:37.084320",
    "MEAN_MOTION": 15.06391481,
    "ECCENTRICITY": 0.0001703,
    "INCLINATION": 53.0562,
    "RA_OF_ASC_NODE": 303.1322,
    "ARG_OF_PERICENTER": 93.067,
    "MEAN_ANOMALY": 267.0514,
    "EPHEMERIS_TYPE": 0,
    "CLASSIFICATION_TYPE": "U",
    "NORAD_CAT_ID": 48589,
    "ELEMENT_SET_NO": 999,
    "REV_AT_EPOCH": 24735,
    "BSTAR": 8.1588e-05,
    "MEAN_MOTION_DOT": 9.34e-06,
    "MEAN_MOTION_DDOT": 0.0,
    "TLE_LINE1": "1 48589U 21041AN  25315.29001255  .00000934  00000+0  81588-4 0  9991",
    "TLE_LINE2": "2 48589  53.0562 303.1322 0001703  93.0670 267.0514 15.06391481247351",
    "COMMENT": "Grouped by shell and plane from TLE"
  },
  {
    "OBJECT_NAME": "STARLINK-3952",
    "OBJECT_ID": "22051B",
    "EPOCH": "2025-11-11T06:38:11.350464",
    "MEAN_MOTION": 15.08838285,
    "ECCENTRICITY": 0.0001442,
    "INCLINATION": 53.2176,
    "RA_OF_ASC_NODE": 300.6973,
    "ARG_OF_PERICENTER": 87.1506,
    "MEAN_ANOMALY": 272.9652,
    "EPHEMERIS_TYPE": 0,
    "CLASSIFICATION_TYPE": "U",
    "NORAD_CAT_ID": 52534,
    "ELEMENT_SET_NO": 999,
    "REV_AT_EPOCH": 19430,
    "BSTAR": 5.5016e-05,
    "MEAN_MOTION_DOT": 5.88e-06,
    "MEAN_MOTION_DDOT": 0.0,
    "TLE_LINE1": "1 52534U 22051B   25315.27652026  .00000588  00000+0  55016-4 0  9996",
    "TLE_LINE2": "2 52534  53.2176 300.6973 0001442  87.1506 272.9652 15.08838285194309",
    "COMMENT": "Grouped by shell and plane from TLE"
  },
  {
    "OBJECT_NAME": "STARLINK-3958",
    "OBJECT_ID": "22051C",
    "EPOCH": "2025-11-11T06:32:53.309472",
    "MEAN_MOTION": 15.08844362,
    "ECCENTRICITY": 0.000181,
    "INCLINATION": 53.2171,
    "RA_OF_ASC_NODE": 300.7122,
    "ARG_OF_PERICENTER": 85.448,
    "MEAN_ANOMALY": 274.6719,
    "EPHEMERIS_TYPE": 0,
    "CLASSIFICATION_TYPE": "U",
    "NORAD_CAT_ID": 52535,
    "ELEMENT_SET_NO": 999,
    "REV_AT_EPOCH": 19356,
    "BSTAR": 0.00021451,
    "MEAN_MOTION_DOT": 3.128e-05,
    "MEAN_MOTION_DDOT": 0.0,
    "TLE_LINE1": "1 52535U 22051C   25315.27283923  .00003128  00000+0  21451-3 0  9991",
    "TLE_LINE2": "2 52535  53.2171 300.7122 0001810  85.4480 274.6719 15.08844362193566",
    "COMMENT": "Grouped by shell and plane from TLE"
  },
  {
    "OBJECT_NAME": "STARLINK-3964",
    "OBJECT_ID": "22051D",
    "EPOCH": "2025-11-11T06:27:35.454240",
    "MEAN_MOTION": 15.08814903,
    "ECCENTRICITY": 0.0001429,
    "INCLINATION": 53.2174,
    "RA_OF_ASC_NODE": 300.732,
    "ARG_OF_PERICENTER": 89.8762,
    "MEAN_ANOMALY": 270.2394,
    "EPHEMERIS_TYPE": 0,
    "CLASSIFICATION_TYPE": "U",
    "NORAD_CAT_ID": 52536,
    "ELEMENT_SET_NO": 999,
    "REV_AT_EPOCH": 19356,
    "BSTAR": 1.5791000000000002e-05,
    "MEAN_MOTION_DOT": -3.7e-07,
    "MEAN_MOTION_DDOT": 0.0,
    "TLE_LINE1": "1 52536U 22051D   25315.26916035 -.00000037  00000+0  15791-4 0  9996",
    "TLE_LINE2": "2 52536  53.2174 300.7320 0001429  89.8762 270.2394 15.08814903193566",
    "COMMENT": "Grouped by shell and plane from TLE"
  },
  {
    "OBJECT_NAME": "STARLINK-3897",
    "OBJECT_ID": "22051E",
    "EPOCH": "2025-11-11T05:55:45.537312",
    "MEAN_MOTION": 15.08846272,
    "ECCENTRICITY": 0.0001557,
    "INCLINATION": 53.2184,
    "RA_OF_ASC_NODE": 300.6366,
    "ARG_OF_PERICENTER": 85.5561,
    "MEAN_ANOMALY": 274.5609,
    "EPHEMERIS_TYPE": 0,
    "CLASSIFICATION_TYPE": "U",
    "NORAD_CAT_ID": 52537,
    "ELEMENT_SET_NO": 999,
    "REV_AT_EPOCH": 19356,
    "BSTAR": 0.00018112,
    "MEAN_MOTION_DOT": 2.596e-05,
    "MEAN_MOTION_DDOT": 0.0,
    "TLE_LINE1": "1 52537U 22051E   25315.24705483  .00002596  00000+0  18112-3 0  9998",
    "TLE_LINE2": "2 52537  53.2184 300.6366 0001557  85.5561 274.5609 15.08846272193569",
    "COMMENT": "Grouped by shell and plane from TLE"
  },
  {
    "OBJECT_NAME": "STARLINK-3933",
    "OBJECT_ID": "22051F",
    "EPOCH": "2025-11-11T06:11:40.852608",
    "MEAN_MOTION": 15.08847043,
    "ECCENTRICITY": 0.0001349,
    "INCLINATION": 53.2179,
    "RA_OF_ASC_NODE": 300.7813,
    "ARG_OF_PERICENTER": 85.9587,
    "MEAN_ANOMALY": 274.156,
    "EPHEMERIS_TYPE": 0,
    "CLASSIFICATION_TYPE": "U",
    "NORAD_CAT_ID": 52538,
    "ELEMENT_SET_NO": 999,
    "REV_AT_EPOCH": 19356,
    "BSTAR": 0.00025846,
    "MEAN_MOTION_DOT": 3.829e-05,
    "MEAN_MOTION_DDOT": 0.0,
    "TLE_LINE1": "1 52538U 22051F   25315.25811172  .00003829  00000+0  25846-3 0  9995",
    "TLE_LINE2": "2 52538  53.2179 300.7813 0001349  85.9587 274.1560 15.08847043193562",
    "COMMENT": "Grouped by shell and plane from TLE"
  },
  {
    "OBJECT_NAME": "STARLINK-3757",
    "OBJECT_ID": "22051G",
    "EPOCH": "2025-11-11T04:41:36.021984",
    "MEAN_MOTION": 15.08839225,
    "ECCENTRICITY": 0.0001386,
    "INCLINATION": 53.2177,
    "RA_OF_ASC_NODE": 301.0619,
    "ARG_OF_PERICENTER": 87.4785,
    "MEAN_ANOMALY": 272.6366,
    "EPHEMERIS_TYPE": 0,
    "CLASSIFICATION_TYPE": "U",
    "NORAD_CAT_ID": 52539,
    "ELEMENT_SET_NO": 999,
    "REV_AT_EPOCH": 19355,
    "BSTAR": 0.00010222000000000001,
    "MEAN_MOTION_DOT": 1.339e-05,
    "MEAN_MOTION_DDOT": 0.0,
    "TLE_LINE1": "1 52539U 22051G   25315.19555581  .00001339  00000+0  10222-3 0  9994",
    "TLE_LINE2": "2 52539  53.2177 301.0619 0001386  87.4785 272.6366 15.08839225193556",
    "COMMENT": "Grouped by shell and plane from TLE"
  }
]